{
    "links": {
        "self": "http://www.neowsapp.com/rest/v1/neo/3755317?api_key=iIulBulltgU6a56xZRHN4H3l9WmuAYTsLGpBGhQ2"
    },
    "id": "3755317",
    "neo_reference_id": "3755317",
    "name": "(2016 NW32)",
    "designation": "2016 NW32",
    "nasa_jpl_url": "http://ssd.jpl.nasa.gov/sbdb.cgi?sstr=3755317",
    "absolute_magnitude_h": 22.0,
    "estimated_diameter": {
        "kilometers": {
            "estimated_diameter_min": 0.1058168859,
            "estimated_diameter_max": 0.2366137501
        },
        "meters": {
            "estimated_diameter_min": 105.8168859331,
            "estimated_diameter_max": 236.6137501138
        },
        "miles": {
            "estimated_diameter_min": 0.0657515442,
            "estimated_diameter_max": 0.1470249225
        },
        "feet": {
            "estimated_diameter_min": 347.1682720448,
            "estimated_diameter_max": 776.2918559233
        }
    },
    "is_potentially_hazardous_asteroid": false,
    "close_approach_data": [
        {
            "close_approach_date": "2016-07-29",
            "close_approach_date_full": "2016-Jul-29 10:18",
            "epoch_date_close_approach": 1469787480000,
            "relative_velocity": {
                "kilometers_per_second": "4.8947587636",
                "kilometers_per_hour": "17621.1315490341",
                "miles_per_hour": "10949.0858783429"
            },
            "miss_distance": {
                "astronomical": "0.3311330889",
                "lunar": "128.8107715821",
                "kilometers": "49536804.785960643",
                "miles": "30780743.1719691534"
            },
            "orbiting_body": "Earth"
        },
        {
            "close_approach_date": "2038-07-19",
            "close_approach_date_full": "2038-Jul-19 10:08",
            "epoch_date_close_approach": 2163146880000,
            "relative_velocity": {
                "kilometers_per_second": "4.7229817055",
                "kilometers_per_hour": "17002.7341398076",
                "miles_per_hour": "10564.8377770377"
            },
            "miss_distance": {
                "astronomical": "0.2538415494",
                "lunar": "98.7443627166",
                "kilometers": "37974155.107739778",
                "miles": "23596045.8207658164"
            },
            "orbiting_body": "Earth"
        }
    ],
    "orbital_data": {
        "orbit_id": "9",
        "orbit_determination_date": "2017-04-06 08:25:00",
        "first_observation_date": "2016-07-06",
        "last_observation_date": "2016-09-25",
        "data_arc_in_days": 81,
        "observations_used": 41,
        "orbit_uncertainty": "5",
        "minimum_orbit_intersection": ".25569",
        "jupiter_tisserand_invariant": "3.584",
        "epoch_osculation": "2459000.5",
        "eccentricity": ".4085238957932489",
        "semi_major_axis": "2.14806110784155",
        "inclination": "8.058750736904171",
        "ascending_node_longitude": "290.3413416114456",
        "orbital_period": "1149.921978734758",
        "perihelion_distance": "1.270526815664158",
        "perihelion_argument": "9.140645189952705",
        "aphelion_distance": "3.025595400018942",
        "perihelion_time": "2458728.598535786211",
        "mean_anomaly": "85.12275521915396",
        "mean_motion": ".3130647180046969",
        "equinox": "J2000",
        "orbit_class": {
            "orbit_class_type": "AMO",
            "orbit_class_description": "Near-Earth asteroid orbits similar to that of 1221 Amor",
            "orbit_class_range": "1.017 AU < q (perihelion) < 1.3 AU"
        }
    },
    "is_sentry_object": false
}